{
  "type": "FeatureCollection",
  "features": [
    {
      "type": "Feature",
      "properties": {
        "norad_id": 66892,
        "name": "STARLINK-35883",
        "group": "last-30-days",
        "lat": -29.150513706192587,
        "lon": -117.27067693005824,
        "alt_km": 350.51456933778445,
        "timestamp": "2025-12-19T20:42:58.814426+00:00",
        "meta_object_name": "STARLINK-35883",
        "meta_object_id": "2025-283Q",
        "meta_epoch": "2025-12-19T06:00:02.000160",
        "meta_mean_motion": 15.76280618,
        "meta_eccentricity": 8.102e-05,
        "meta_inclination": 53.1559,
        "meta_ra_of_asc_node": 41.0557,
        "meta_arg_of_pericenter": 103.2894,
        "meta_mean_anomaly": 234.8078,
        "meta_ephemeris_type": 0,
        "meta_classification_type": "U",
        "meta_norad_cat_id": 66892,
        "meta_element_set_no": 999,
        "meta_rev_at_epoch": 341,
        "meta_bstar": -0.010142825,
        "meta_mean_motion_dot": -0.01440158,
        "meta_mean_motion_ddot": 0,
        "tle_line1": "1 66892U 25283Q   25353.25002315 -.01440158  00000+0 -10143-1 0  9991",
        "tle_line2": "2 66892  53.1559  41.0557 0000810 103.2894 234.8078 15.76280618  3413"
      },
      "geometry": {
        "type": "Point",
        "coordinates": [
          -117.27067693005824,
          -29.150513706192587
        ]
      }
    },
    {
      "type": "Feature",
      "properties": {
        "norad_id": 66893,
        "name": "STARLINK-36033",
        "group": "last-30-days",
        "lat": -30.52136881364343,
        "lon": -115.76090852590194,
        "alt_km": 351.0413610124351,
        "timestamp": "2025-12-19T20:42:58.814436+00:00",
        "meta_object_name": "STARLINK-36033",
        "meta_object_id": "2025-283R",
        "meta_epoch": "2025-12-19T06:00:02.000160",
        "meta_mean_motion": 15.76210268,
        "meta_eccentricity": 7.697e-05,
        "meta_inclination": 53.1559,
        "meta_ra_of_asc_node": 41.0516,
        "meta_arg_of_pericenter": 96.7764,
        "meta_mean_anomaly": 243.4371,
        "meta_ephemeris_type": 0,
        "meta_classification_type": "U",
        "meta_norad_cat_id": 66893,
        "meta_element_set_no": 999,
        "meta_rev_at_epoch": 347,
        "meta_bstar": -0.010464843,
        "meta_mean_motion_dot": -0.01476302,
        "meta_mean_motion_ddot": 0,
        "tle_line1": "1 66893U 25283R   25353.25002315 -.01476302  00000+0 -10465-1 0  9999",
        "tle_line2": "2 66893  53.1559  41.0516 0000769  96.7764 243.4371 15.76210268  3476"
      },
      "geometry": {
        "type": "Point",
        "coordinates": [
          -115.76090852590194,
          -30.52136881364343
        ]
      }
    },
    {
      "type": "Feature",
      "properties": {
        "norad_id": 66894,
        "name": "STARLINK-35718",
        "group": "last-30-days",
        "lat": -31.986398181054533,
        "lon": -114.07676178137758,
        "alt_km": 351.32823444745645,
        "timestamp": "2025-12-19T20:42:58.814447+00:00",
        "meta_object_name": "STARLINK-35718",
        "meta_object_id": "2025-283S",
        "meta_epoch": "2025-12-19T06:00:02.000160",
        "meta_mean_motion": 15.76050009,
        "meta_eccentricity": 0.00010418,
        "meta_inclination": 53.1564,
        "meta_ra_of_asc_node": 41.0474,
        "meta_arg_of_pericenter": 89.0222,
        "meta_mean_anomaly": 253.4289,
        "meta_ephemeris_type": 0,
        "meta_classification_type": "U",
        "meta_norad_cat_id": 66894,
        "meta_element_set_no": 999,
        "meta_rev_at_epoch": 347,
        "meta_bstar": -0.009685295,
        "meta_mean_motion_dot": -0.01369974,
        "meta_mean_motion_ddot": 0,
        "tle_line1": "1 66894U 25283S   25353.25002315 -.01369974  00000+0 -96853-2 0  9992",
        "tle_line2": "2 66894  53.1564  41.0474 0001041  89.0222 253.4289 15.76050009  3478"
      },
      "geometry": {
        "type": "Point",
        "coordinates": [
          -114.07676178137758,
          -31.986398181054533
        ]
      }
    },
    {
      "type": "Feature",
      "properties": {
        "norad_id": 66895,
        "name": "STARLINK-35971",
        "group": "last-30-days",
        "lat": -34.507016956719056,
        "lon": -110.97919843452655,
        "alt_km": 352.58011456240183,
        "timestamp": "2025-12-19T20:42:58.814457+00:00",
        "meta_object_name": "STARLINK-35971",
        "meta_object_id": "2025-283T",
        "meta_epoch": "2025-12-19T06:00:02.000160",
        "meta_mean_motion": 15.75878194,
        "meta_eccentricity": 0.00010365,
        "meta_inclination": 53.1558,
        "meta_ra_of_asc_node": 41.0374,
        "meta_arg_of_pericenter": 88.0413,
        "meta_mean_anomaly": 258.6411,
        "meta_ephemeris_type": 0,
        "meta_classification_type": "U",
        "meta_norad_cat_id": 66895,
        "meta_element_set_no": 999,
        "meta_rev_at_epoch": 347,
        "meta_bstar": -0.010885451,
        "meta_mean_motion_dot": -0.01508767,
        "meta_mean_motion_ddot": 0,
        "tle_line1": "1 66895U 25283T   25353.25002315 -.01508767  00000+0 -10885-1 0  9998",
        "tle_line2": "2 66895  53.1558  41.0374 0001036  88.0413 258.6411 15.75878194  3472"
      },
      "geometry": {
        "type": "Point",
        "coordinates": [
          -110.97919843452655,
          -34.507016956719056
        ]
      }
    },
    {
      "type": "Feature",
      "properties": {
        "norad_id": 66896,
        "name": "STARLINK-35791",
        "group": "last-30-days",
        "lat": -33.221016245476676,
        "lon": -112.59392251677566,
        "alt_km": 352.0357849034108,
        "timestamp": "2025-12-19T20:42:58.814467+00:00",
        "meta_object_name": "STARLINK-35791",
        "meta_object_id": "2025-283U",
        "meta_epoch": "2025-12-19T06:00:02.000160",
        "meta_mean_motion": 15.75960145,
        "meta_eccentricity": 8.244e-05,
        "meta_inclination": 53.1561,
        "meta_ra_of_asc_node": 41.0422,
        "meta_arg_of_pericenter": 94.4,
        "meta_mean_anomaly": 250.1986,
        "meta_ephemeris_type": 0,
        "meta_classification_type": "U",
        "meta_norad_cat_id": 66896,
        "meta_element_set_no": 999,
        "meta_rev_at_epoch": 347,
        "meta_bstar": -0.010640949,
        "meta_mean_motion_dot": -0.01483569,
        "meta_mean_motion_ddot": 0,
        "tle_line1": "1 66896U 25283U   25353.25002315 -.01483569  00000+0 -10641-1 0  9991",
        "tle_line2": "2 66896  53.1561  41.0422 0000824  94.4000 250.1986 15.75960145  3470"
      },
      "geometry": {
        "type": "Point",
        "coordinates": [
          -112.59392251677566,
          -33.221016245476676
        ]
      }
    },
    {
      "type": "Feature",
      "properties": {
        "norad_id": 66897,
        "name": "STARLINK-36079",
        "group": "last-30-days",
        "lat": -35.73446639332575,
        "lon": -109.36287854234563,
        "alt_km": 353.0142430210708,
        "timestamp": "2025-12-19T20:42:58.814482+00:00",
        "meta_object_name": "STARLINK-36079",
        "meta_object_id": "2025-283V",
        "meta_epoch": "2025-12-19T06:00:02.000160",
        "meta_mean_motion": 15.75767241,
        "meta_eccentricity": 8.324e-05,
        "meta_inclination": 53.1561,
        "meta_ra_of_asc_node": 41.0338,
        "meta_arg_of_pericenter": 101.7667,
        "meta_mean_anomaly": 247.0565,
        "meta_ephemeris_type": 0,
        "meta_classification_type": "U",
        "meta_norad_cat_id": 66897,
        "meta_element_set_no": 999,
        "meta_rev_at_epoch": 347,
        "meta_bstar": -0.011371237,
        "meta_mean_motion_dot": -0.01560599,
        "meta_mean_motion_ddot": 0,
        "tle_line1": "1 66897U 25283V   25353.25002315 -.01560599  00000+0 -11371-1 0  9992",
        "tle_line2": "2 66897  53.1561  41.0338 0000832 101.7667 247.0565 15.75767241  3477"
      },
      "geometry": {
        "type": "Point",
        "coordinates": [
          -109.36287854234563,
          -35.73446639332575
        ]
      }
    },
    {
      "type": "Feature",
      "properties": {
        "norad_id": 66898,
        "name": "STARLINK-36065",
        "group": "last-30-days",
        "lat": -36.94910346387779,
        "lon": -107.68344706425215,
        "alt_km": 353.6566685178077,
        "timestamp": "2025-12-19T20:42:58.814493+00:00",
        "meta_object_name": "STARLINK-36065",
        "meta_object_id": "2025-283W",
        "meta_epoch": "2025-12-19T06:00:02.000160",
        "meta_mean_motion": 15.75702186,
        "meta_eccentricity": 5.788e-05,
        "meta_inclination": 53.1557,
        "meta_ra_of_asc_node": 41.0287,
        "meta_arg_of_pericenter": 78.2699,
        "meta_mean_anomaly": 272.6518,
        "meta_ephemeris_type": 0,
        "meta_classification_type": "U",
        "meta_norad_cat_id": 66898,
        "meta_element_set_no": 999,
        "meta_rev_at_epoch": 347,
        "meta_bstar": -0.012034452,
        "meta_mean_motion_dot": -0.01668537,
        "meta_mean_motion_ddot": 0,
        "tle_line1": "1 66898U 25283W   25353.25002315 -.01668537  00000+0 -12034-1 0  9991",
        "tle_line2": "2 66898  53.1557  41.0287 0000578  78.2699 272.6518 15.75702186  3475"
      },
      "geometry": {
        "type": "Point",
        "coordinates": [
          -107.68344706425215,
          -36.94910346387779
        ]
      }
    }
  ]
}